[{"OBJECT_NAME":"GHGSAT-C3","OBJECT_ID":"2022-057F","EPOCH":"2026-03-09T22:30:13.234752","MEAN_MOTION":15.32943835,"ECCENTRICITY":0.00073198,"INCLINATION":97.6431,"RA_OF_ASC_NODE":211.0668,"ARG_OF_PERICENTER":112.4588,"MEAN_ANOMALY":247.7429,"EPHEMERIS_TYPE":0,"CLASSIFICATION_TYPE":"U","NORAD_CAT_ID":52737,"ELEMENT_SET_NO":999,"REV_AT_EPOCH":21032,"BSTAR":0.00031249517,"MEAN_MOTION_DOT":9.871e-5,"MEAN_MOTION_DDOT":0},{"OBJECT_NAME":"STARLINK-36256","OBJECT_ID":"2025-299B","EPOCH":"2026-03-09T17:49:57.137952","MEAN_MOTION":15.34100812,"ECCENTRICITY":0.00015407,"INCLINATION":42.9993,"RA_OF_ASC_NODE":168.7662,"ARG_OF_PERICENTER":312.3927,"MEAN_ANOMALY":47.6797,"EPHEMERIS_TYPE":0,"CLASSIFICATION_TYPE":"U","NORAD_CAT_ID":67103,"ELEMENT_SET_NO":999,"REV_AT_EPOCH":1312,"BSTAR":-0.0091362377,"MEAN_MOTION_DOT":-0.00296455,"MEAN_MOTION_DDOT":0}]
